{"type": "FeatureCollection", "features": [ {"type": "Feature", "properties": {"norad_id": 43010, "name": "FENGYUN 3D", "group": "weather", "lat": 33.81590464342166, "lon": 146.74640659792507, "alt_km": 823.2834254193731, "timestamp": "2025-12-20T05:41:49.661247+00:00", "meta": {"OBJECT_NAME": "FENGYUN 3D", "OBJECT_ID": "2017-072A", "EPOCH": "2025-12-19T22:14:51.650880", "MEAN_MOTION": 14.19684909, "ECCENTRICITY": 0.00013287, "INCLINATION": 98.9894, "RA_OF_ASC_NODE": 320.3447, "ARG_OF_PERICENTER": 159.5385, "MEAN_ANOMALY": 200.5843, "EPHEMERIS_TYPE": 0, "CLASSIFICATION_TYPE": "U", "NORAD_CAT_ID": 43010, "ELEMENT_SET_NO": 999, "REV_AT_EPOCH": 41955, "BSTAR": -0.00012002762, "MEAN_MOTION_DOT": -3e-06, "MEAN_MOTION_DDOT": 0}, "tle": {"line1": "1 43010U 17072A   25353.92698670 -.00000300  00000+0 -12003-3 0  9993", "line2": "2 43010  98.9894 320.3447 0001328 159.5385 200.5843 14.19684909419557"}}, "geometry": {"type": "Point", "coordinates": [146.74640659792507, 33.81590464342166]}}, {"type": "Feature", "properties": {"norad_id": 43013, "name": "NOAA 20 (JPSS-1)", "group": "weather", "lat": -65.03361981003563, "lon": -50.205620704574955, "alt_km": 835.3531681814429, "timestamp": "2025-12-20T05:41:49.661258+00:00", "meta": {"OBJECT_NAME": "NOAA 20 (JPSS-1)", "OBJECT_ID": "2017-073A", "EPOCH": "2025-12-19T21:33:06.613344", "MEAN_MOTION": 14.19527486, "ECCENTRICITY": 0.00021227, "INCLINATION": 98.7609, "RA_OF_ASC_NODE": 290.1167, "ARG_OF_PERICENTER": 76.9662, "MEAN_ANOMALY": 283.1751, "EPHEMERIS_TYPE": 0, "CLASSIFICATION_TYPE": "U", "NORAD_CAT_ID": 43013, "ELEMENT_SET_NO": 999, "REV_AT_EPOCH": 41903, "BSTAR": 4.0679733e-05, "MEAN_MOTION_DOT": 4.2e-07, "MEAN_MOTION_DDOT": 0}, "tle": {"line1": "1 43013U 17073A   25353.89799321  .00000042  00000+0  40680-4 0  9992", "line2": "2 43013  98.7609 290.1167 0002122  76.9662 283.1751 14.19527486419032"}}, "geometry": {"type": "Point", "coordinates": [-50.205620704574955, -65.03361981003563]}}, {"type": "Feature", "properties": {"norad_id": 43226, "name": "GOES 17", "group": "weather", "lat": -0.006448536295712337, "lon": 85.02720215020936, "alt_km": 35798.956960462325, "timestamp": "2025-12-20T05:41:49.661271+00:00", "meta": {"OBJECT_NAME": "GOES 17", "OBJECT_ID": "2018-022A", "EPOCH": "2025-12-19T11:26:17.750976", "MEAN_MOTION": 1.00270964, "ECCENTRICITY": 0.0003082, "INCLINATION": 0.474, "RA_OF_ASC_NODE": 89.1739, "ARG_OF_PERICENTER": 191.1693, "MEAN_ANOMALY": 250.0534, "EPHEMERIS_TYPE": 0, "CLASSIFICATION_TYPE": "U", "NORAD_CAT_ID": 43226, "ELEMENT_SET_NO": 999, "REV_AT_EPOCH": 2862, "BSTAR": 0, "MEAN_MOTION_DOT": -1.58e-06, "MEAN_MOTION_DDOT": 0}, "tle": {"line1": "1 43226U 18022A   25353.47659434 -.00000158  00000+0  00000+0 0  9993", "line2": "2 43226   0.4740  89.1739 0003082 191.1693 250.0534  1.00270964 28620"}}, "geometry": {"type": "Point", "coordinates": [85.02720215020936, -0.006448536295712337]}}, {"type": "Feature", "properties": {"norad_id": 43491, "name": "FENGYUN 2H", "group": "weather", "lat": 0.3031204636057099, "lon": -106.11203514761742, "alt_km": 35776.161096434254, "timestamp": "2025-12-20T05:41:49.661285+00:00", "meta": {"OBJECT_NAME": "FENGYUN 2H", "OBJECT_ID": "2018-050A", "EPOCH": "2025-12-19T20:29:17.903616", "MEAN_MOTION": 1.00271278, "ECCENTRICITY": 0.0002387, "INCLINATION": 2.5685, "RA_OF_ASC_NODE": 81.2551, "ARG_OF_PERICENTER": 165.7305, "MEAN_ANOMALY": 228.3876, "EPHEMERIS_TYPE": 0, "CLASSIFICATION_TYPE": "U", "NORAD_CAT_ID": 43491, "ELEMENT_SET_NO": 999, "REV_AT_EPOCH": 2764, "BSTAR": 0, "MEAN_MOTION_DOT": -1.08e-06, "MEAN_MOTION_DDOT": 0}, "tle": {"line1": "1 43491U 18050A   25353.85367944 -.00000108  00000+0  00000+0 0  9997", "line2": "2 43491   2.5685  81.2551 0002387 165.7305 228.3876  1.00271278 27641"}}, "geometry": {"type": "Point", "coordinates": [-106.11203514761742, 0.3031204636057099]}}, {"type": "Feature", "properties": {"norad_id": 43689, "name": "METOP-C", "group": "weather", "lat": 51.758697231491524, "lon": -116.9156482240186, "alt_km": 815.6105689190736, "timestamp": "2025-12-20T05:41:49.661296+00:00", "meta": {"OBJECT_NAME": "METOP-C", "OBJECT_ID": "2018-087A", "EPOCH": "2025-12-19T22:20:34.717632", "MEAN_MOTION": 14.21486972, "ECCENTRICITY": 8.974e-05, "INCLINATION": 98.6919, "RA_OF_ASC_NODE": 51.5901, "ARG_OF_PERICENTER": 27.0308, "MEAN_ANOMALY": 333.0916, "EPHEMERIS_TYPE": 0, "CLASSIFICATION_TYPE": "U", "NORAD_CAT_ID": 43689, "ELEMENT_SET_NO": 999, "REV_AT_EPOCH": 36936, "BSTAR": 6.5359775e-05, "MEAN_MOTION_DOT": 9.9e-07, "MEAN_MOTION_DDOT": 0}, "tle": {"line1": "1 43689U 18087A   25353.93095738  .00000099  00000+0  65360-4 0  9997", "line2": "2 43689  98.6919  51.5901 0000897  27.0308 333.0916 14.21486972369365"}}, "geometry": {"type": "Point", "coordinates": [-116.9156482240186, 51.758697231491524]}}, {"type": "Feature", "properties": {"norad_id": 43823, "name": "GEO-KOMPSAT-2A", "group": "weather", "lat": -0.021667890480566006, "lon": -57.20844590168254, "alt_km": 35787.910141142835, "timestamp": "2025-12-20T05:41:49.661308+00:00", "meta": {"OBJECT_NAME": "GEO-KOMPSAT-2A", "OBJECT_ID": "2018-100A", "EPOCH": "2025-12-19T20:43:16.565952", "MEAN_MOTION": 1.00271613, "ECCENTRICITY": 4.298e-05, "INCLINATION": 0.0523, "RA_OF_ASC_NODE": 147.9601, "ARG_OF_PERICENTER": 316.2542, "MEAN_ANOMALY": 63.5825, "EPHEMERIS_TYPE": 0, "CLASSIFICATION_TYPE": "U", "NORAD_CAT_ID": 43823, "ELEMENT_SET_NO": 999, "REV_AT_EPOCH": 2583, "BSTAR": 0, "MEAN_MOTION_DOT": -3.19e-06, "MEAN_MOTION_DDOT": 0}, "tle": {"line1": "1 43823U 18100A   25353.86338618 -.00000319  00000+0  00000+0 0  9993", "line2": "2 43823   0.0523 147.9601 0000429 316.2542  63.5825  1.00271613 25836"}}, "geometry": {"type": "Point", "coordinates": [-57.20844590168254, -0.021667890480566006]}}, {"type": "Feature", "properties": {"norad_id": 44387, "name": "METEOR-M2 2", "group": "weather", "lat": -78.5743048535724, "lon": 24.868871784713736, "alt_km": 819.1033366481661, "timestamp": "2025-12-20T05:41:49.661319+00:00", "meta": {"OBJECT_NAME": "METEOR-M2 2", "OBJECT_ID": "2019-038A", "EPOCH": "2025-12-19T21:39:20.047104", "MEAN_MOTION": 14.24294229, "ECCENTRICITY": 0.00015872, "INCLINATION": 98.897, "RA_OF_ASC_NODE": 333.7188, "ARG_OF_PERICENTER": 134.0679, "MEAN_ANOMALY": 226.063, "EPHEMERIS_TYPE": 0, "CLASSIFICATION_TYPE": "U", "NORAD_CAT_ID": 44387, "ELEMENT_SET_NO": 999, "REV_AT_EPOCH": 33577, "BSTAR": -3.22808e-06, "MEAN_MOTION_DOT": -5.3e-07, "MEAN_MOTION_DDOT": 0}, "tle": {"line1": "1 44387U 19038A   25353.90231536 -.00000053  00000+0 -32281-5 0  9994", "line2": "2 44387  98.8970 333.7188 0001587 134.0679 226.0630 14.24294229335776"}}, "geometry": {"type": "Point", "coordinates": [24.868871784713736, -78.5743048535724]}}, {"type": "Feature", "properties": {"norad_id": 47719, "name": "ARKTIKA-M 1", "group": "weather", "lat": 62.045042263273146, "lon": 155.22884599637248, "alt_km": 38349.479130492, "timestamp": "2025-12-20T05:41:49.661333+00:00", "meta": {"OBJECT_NAME": "ARKTIKA-M 1", "OBJECT_ID": "2021-016A", "EPOCH": "2025-12-19T01:20:05.580096", "MEAN_MOTION": 2.00630571, "ECCENTRICITY": 0.7207407, "INCLINATION": 63.1758, "RA_OF_ASC_NODE": 83.1314, "ARG_OF_PERICENTER": 269.1504, "MEAN_ANOMALY": 15.5629, "EPHEMERIS_TYPE": 0, "CLASSIFICATION_TYPE": "U", "NORAD_CAT_ID": 47719, "ELEMENT_SET_NO": 999, "REV_AT_EPOCH": 3517, "BSTAR": 0, "MEAN_MOTION_DOT": -1.23e-06, "MEAN_MOTION_DDOT": 0}, "tle": {"line1": "1 47719U 21016A   25353.05562014 -.00000123  00000+0  00000+0 0  9994", "line2": "2 47719  63.1758  83.1314 7207407 269.1504  15.5629  2.00630571 35172"}}, "geometry": {"type": "Point", "coordinates": [155.22884599637248, 62.045042263273146]}}, {"type": "Feature", "properties": {"norad_id": 49008, "name": "FENGYUN 3E", "group": "weather", "lat": 61.272606291677654, "lon": -169.01699340043754, "alt_km": 819.8202020345607, "timestamp": "2025-12-20T05:41:49.661352+00:00", "meta": {"OBJECT_NAME": "FENGYUN 3E", "OBJECT_ID": "2021-062A", "EPOCH": "2025-12-19T22:22:51.775680", "MEAN_MOTION": 14.19880319, "ECCENTRICITY": 7.353e-05, "INCLINATION": 98.7469, "RA_OF_ASC_NODE": 354.3685, "ARG_OF_PERICENTER": 214.4486, "MEAN_ANOMALY": 145.6643, "EPHEMERIS_TYPE": 0, "CLASSIFICATION_TYPE": "U", "NORAD_CAT_ID": 49008, "ELEMENT_SET_NO": 999, "REV_AT_EPOCH": 23114, "BSTAR": -1.0741e-05, "MEAN_MOTION_DOT": -6.7e-07, "MEAN_MOTION_DDOT": 0}, "tle": {"line1": "1 49008U 21062A   25353.93254370 -.00000067  00000+0 -10741-4 0  9994", "line2": "2 49008  98.7469 354.3685 0000735 214.4486 145.6643 14.19880319231148"}}, "geometry": {"type": "Point", "coordinates": [-169.01699340043754, 61.272606291677654]}}, {"type": "Feature", "properties": {"norad_id": 51850, "name": "GOES 18", "group": "weather", "lat": -0.0024046410738383793, "lon": 37.570987435623074, "alt_km": 35786.126629103914, "timestamp": "2025-12-20T05:41:49.661365+00:00", "meta": {"OBJECT_NAME": "GOES 18", "OBJECT_ID": "2022-021A", "EPOCH": "2025-12-19T13:06:13.924800", "MEAN_MOTION": 1.00280535, "ECCENTRICITY": 0.0001032, "INCLINATION": 0.0096, "RA_OF_ASC_NODE": 238.6381, "ARG_OF_PERICENTER": 33.0454, "MEAN_ANOMALY": 236.2852, "EPHEMERIS_TYPE": 0, "CLASSIFICATION_TYPE": "U", "NORAD_CAT_ID": 51850, "ELEMENT_SET_NO": 999, "REV_AT_EPOCH": 479, "BSTAR": 0, "MEAN_MOTION_DOT": 1.2e-06, "MEAN_MOTION_DDOT": 0}, "tle": {"line1": "1 51850U 22021A   25353.54599450  .00000120  00000+0  00000+0 0  9996", "line2": "2 51850   0.0096 238.6381 0001032  33.0454 236.2852  1.00280535  4794"}}, "geometry": {"type": "Point", "coordinates": [37.570987435623074, -0.0024046410738383793]}}]}